{
 "type": "FeatureCollection",
 "features": [
  {
   "type": "Feature",
   "properties": {
    "nombre": "Ciudad del Saber (límite propuesto, no oficial)",
    "fuente": "trazado sobre calles de OpenStreetMap por fuente/inventario-ciudad.mjs"
   },
   "geometry": {
    "type": "Polygon",
    "coordinates": [
     [
      [
       -79.57985,
       8.99135
      ],
      [
       -79.5796,
       8.9926
      ],
      [
       -79.5795,
       8.994
      ],
      [
       -79.5795,
       8.9956
      ],
      [
       -79.5793,
       8.9965
      ],
      [
       -79.5784,
       8.9972
      ],
      [
       -79.5775,
       8.9983
      ],
      [
       -79.5768,
       8.9994
      ],
      [
       -79.5762,
       9.0003
      ],
      [
       -79.5763,
       9.0016
      ],
      [
       -79.5769,
       9.0026
      ],
      [
       -79.5764,
       9.0033
      ],
      [
       -79.5758,
       9.0047
      ],
      [
       -79.5756,
       9.0062
      ],
      [
       -79.5756,
       9.0076
      ],
      [
       -79.578,
       9.0077
      ],
      [
       -79.5799,
       9.0072
      ],
      [
       -79.5828,
       9.0064
      ],
      [
       -79.5845,
       9.0062
      ],
      [
       -79.587,
       9.0071
      ],
      [
       -79.5884,
       9.0082
      ],
      [
       -79.59,
       9.008
      ],
      [
       -79.5912,
       9.0062
      ],
      [
       -79.5913,
       9.005
      ],
      [
       -79.5892,
       9.0037
      ],
      [
       -79.588,
       9.0027
      ],
      [
       -79.5869,
       9.0012
      ],
      [
       -79.585,
       8.9986
      ],
      [
       -79.5834,
       8.9964
      ],
      [
       -79.5807,
       8.9927
      ],
      [
       -79.57985,
       8.99135
      ]
     ]
    ]
   }
  }
 ]
}
